{
  "type": "FeatureCollection",
  "features": [
    {
      "type": "Feature",
      "geometry": {
        "type": "Point",
        "coordinates": [
          620,
          520
        ]
      },
      "properties": {
        "id": "PC-001",
        "type": "PC",
        "system": "CTS",
        "category": "専用システム",
        "name": "CTS端末-営業01",
        "user": "営業部",
        "ip": "192.168.10.21",
        "vlan": "VLAN10",
        "model": "VersaPro",
        "os": "Windows 10",
        "floor": "1F",
        "assetTag": "A-2025-0101",
        "maintenance": true,
        "connectedTo": "CON-03-45",
        "uplinkTo": "SW-03",
        "note": "",
        "updated": "2025-09-01",
        "updated_at": "2025-10-25T02:42:04Z",
        "created_at": "2025-10-25T02:42:04Z"
      }
    },
    {
      "type": "Feature",
      "geometry": {
        "type": "Point",
        "coordinates": [
          1260,
          860
        ]
      },
      "properties": {
        "id": "PRT-01",
        "type": "Printer",
        "system": "Printer",
        "category": "一般",
        "name": "大ゲラカラー",
        "user": "営業部",
        "ip": "192.168.10.80",
        "vlan": "VLAN10",
        "model": "RICOH IM C300",
        "floor": "1F",
        "assetTag": "A-2025-0201",
        "maintenance": true,
        "connectedTo": "HUB-01",
        "uplinkTo": "SW-03",
        "note": "",
        "updated": "2025-09-01",
        "updated_at": "2025-10-28T12:35:37Z",
        "created_at": "2025-10-28T12:35:37Z"
      }
    },
    {
      "type": "Feature",
      "geometry": {
        "type": "Point",
        "coordinates": [
          1000,
          480
        ]
      },
      "properties": {
        "id": "SW-03",
        "type": "L2Switch",
        "name": "L2SW-03",
        "user": "情報システム",
        "ip": "192.168.10.2",
        "vlan": "TRUNK",
        "model": "Cisco C1000",
        "floor": "1F",
        "assetTag": "A-2024-0003",
        "maintenance": true,
        "note": "",
        "updated": "2025-09-01"
      }
    },
    {
      "type": "Feature",
      "geometry": {
        "type": "Point",
        "coordinates": [
          800,
          840
        ]
      },
      "properties": {
        "id": "CON-03-45",
        "type": "Outlet",
        "name": "情報コンセント 03-45",
        "floor": "1F",
        "maintenance": "true",
        "uplinkTo": "SW-03",
        "updated": "2025-09-01",
        "updated_at": "2025-10-28T12:36:21Z",
        "created_at": "2025-10-28T12:36:21Z"
      }
    },
    {
      "type": "Feature",
      "properties": {
        "created_at": "2025-10-25T03:31:18Z",
        "floor": "1F",
        "id": "HUB-01",
        "maintenance": "true",
        "name": "HUB-001",
        "type": "HUB",
        "updated": "2025-09-09",
        "updated_at": "2025-10-28T12:34:21Z",
        "uplinkTo": "SW-03"
      },
      "geometry": {
        "coordinates": [
          950,
          660
        ],
        "type": "Point"
      }
    }
  ]
}