{
  "type": "FeatureCollection",
  "features": [
    {
      "type": "Feature",
      "properties": {
        "id": "ap-1",
        "name": "AP-1",
        "type": "Access_point",
        "created_at": "2024-01-01T00:00:00Z",
        "updated_at": "2024-01-01T00:00:00Z"
      },
      "geometry": {
        "type": "Point",
        "coordinates": [
          1000,
          1000
        ]
      }
    },
    {
      "type": "Feature",
      "properties": {
        "name": "Printer-1",
        "type": "Printer",
        "id": "PR-1",
        "created_at": "2025-09-25T10:26:55Z",
        "updated_at": "2025-09-25T10:26:55Z"
      },
      "geometry": {
        "type": "Point",
        "coordinates": [
          600,
          600
        ]
      }
    },
    
   {
      "type": "Feature",
      "geometry": {
        "type": "Point",
        "coordinates": [1000, 1000]
      },
      "properties": {
        "id": "PC-001",
        "type": "PC",                     
        "system": "CTS",        
        "category": "一般",          
        "name": "営業PC01",
        "user": "営業部",             
        "ip": "192.168.10.21",
        "vlan": "VLAN10",
        "model": "NEC VersaPro",
        "os": "Windows 10",         
        "floor": "1F",
        "assetTag": "A-2025-0001",
        "maintenance": true,
        "connectedTo": "CON-03-45",   
        "uplinkTo": "SW-03",          
        "note": "",
        "updated": "2025-08-31"       
      }
    }

  ]
}